[{"OBJECT_NAME":"STARLINK-5590","OBJECT_ID":"2023-013AS","EPOCH":"2026-03-08T02:35:28.705632","MEAN_MOTION":15.02537453,"ECCENTRICITY":0.0001034,"INCLINATION":43.0046,"RA_OF_ASC_NODE":321.7296,"ARG_OF_PERICENTER":283.4994,"MEAN_ANOMALY":76.5734,"EPHEMERIS_TYPE":0,"CLASSIFICATION_TYPE":"U","NORAD_CAT_ID":55371,"ELEMENT_SET_NO":999,"REV_AT_EPOCH":17224,"BSTAR":1.980854e-5,"MEAN_MOTION_DOT":6.4e-7,"MEAN_MOTION_DDOT":0},{"OBJECT_NAME":"CZ-6A DEB","OBJECT_ID":"2024-140ZQ","EPOCH":"2026-03-09T07:41:20.503680","MEAN_MOTION":14.88666488,"ECCENTRICITY":0.01239144,"INCLINATION":88.9332,"RA_OF_ASC_NODE":275.1602,"ARG_OF_PERICENTER":122.3295,"MEAN_ANOMALY":239.0003,"EPHEMERIS_TYPE":0,"CLASSIFICATION_TYPE":"U","NORAD_CAT_ID":61458,"ELEMENT_SET_NO":999,"REV_AT_EPOCH":8241,"BSTAR":0.001542641,"MEAN_MOTION_DOT":0.00016654,"MEAN_MOTION_DDOT":0}]
